[{"OBJECT_NAME":"STARLINK-4037","OBJECT_ID":"2022-053H","EPOCH":"2026-03-09T11:22:43.567104","MEAN_MOTION":15.08807028,"ECCENTRICITY":0.00016304,"INCLINATION":53.2175,"RA_OF_ASC_NODE":155.092,"ARG_OF_PERICENTER":112.4022,"MEAN_ANOMALY":247.7144,"EPHEMERIS_TYPE":0,"CLASSIFICATION_TYPE":"U","NORAD_CAT_ID":52663,"ELEMENT_SET_NO":999,"REV_AT_EPOCH":21101,"BSTAR":0.00034878923,"MEAN_MOTION_DOT":5.262e-5,"MEAN_MOTION_DDOT":0},{"OBJECT_NAME":"YUNYAO-1 47","OBJECT_ID":"2025-059E","EPOCH":"2026-03-09T22:46:15.708288","MEAN_MOTION":15.10508558,"ECCENTRICITY":0.00172664,"INCLINATION":97.6066,"RA_OF_ASC_NODE":250.9227,"ARG_OF_PERICENTER":135.6694,"MEAN_ANOMALY":224.5922,"EPHEMERIS_TYPE":0,"CLASSIFICATION_TYPE":"U","NORAD_CAT_ID":63348,"ELEMENT_SET_NO":999,"REV_AT_EPOCH":5331,"BSTAR":0.00029014568,"MEAN_MOTION_DOT":4.732e-5,"MEAN_MOTION_DDOT":0}]
